[{"OBJECT_NAME":"IRIDIUM 151","OBJECT_ID":"2017-083E","EPOCH":"2026-03-03T09:19:55.146144","MEAN_MOTION":14.34218243,"ECCENTRICITY":0.00021522,"INCLINATION":86.4014,"RA_OF_ASC_NODE":6.2667,"ARG_OF_PERICENTER":86.1911,"MEAN_ANOMALY":273.9531,"EPHEMERIS_TYPE":0,"CLASSIFICATION_TYPE":"U","NORAD_CAT_ID":43074,"ELEMENT_SET_NO":999,"REV_AT_EPOCH":42897,"BSTAR":2.5630758e-5,"MEAN_MOTION_DOT":9.2e-7,"MEAN_MOTION_DDOT":0},{"OBJECT_NAME":"IRIDIUM 134","OBJECT_ID":"2017-083F","EPOCH":"2026-03-03T08:34:15.147264","MEAN_MOTION":14.34217853,"ECCENTRICITY":0.00020229,"INCLINATION":86.4022,"RA_OF_ASC_NODE":6.2866,"ARG_OF_PERICENTER":85.2146,"MEAN_ANOMALY":274.9281,"EPHEMERIS_TYPE":0,"CLASSIFICATION_TYPE":"U","NORAD_CAT_ID":43075,"ELEMENT_SET_NO":999,"REV_AT_EPOCH":42893,"BSTAR":8.655972e-6,"MEAN_MOTION_DOT":4.4e-7,"MEAN_MOTION_DDOT":0},{"OBJECT_NAME":"IRIDIUM 137","OBJECT_ID":"2017-083G","EPOCH":"2026-03-03T18:55:19.152768","MEAN_MOTION":14.34218031,"ECCENTRICITY":0.0002307,"INCLINATION":86.402,"RA_OF_ASC_NODE":6.1967,"ARG_OF_PERICENTER":97.0383,"MEAN_ANOMALY":263.1075,"EPHEMERIS_TYPE":0,"CLASSIFICATION_TYPE":"U","NORAD_CAT_ID":43076,"ELEMENT_SET_NO":999,"REV_AT_EPOCH":42906,"BSTAR":9.7451e-6,"MEAN_MOTION_DOT":4.7e-7,"MEAN_MOTION_DDOT":0},{"OBJECT_NAME":"IRIDIUM 141","OBJECT_ID":"2017-083H","EPOCH":"2026-03-03T08:43:24.221856","MEAN_MOTION":14.34220272,"ECCENTRICITY":0.00022378,"INCLINATION":86.4015,"RA_OF_ASC_NODE":6.2112,"ARG_OF_PERICENTER":82.9749,"MEAN_ANOMALY":277.1702,"EPHEMERIS_TYPE":0,"CLASSIFICATION_TYPE":"U","NORAD_CAT_ID":43077,"ELEMENT_SET_NO":999,"REV_AT_EPOCH":42900,"BSTAR":0.00012472307,"MEAN_MOTION_DOT":3.69e-6,"MEAN_MOTION_DDOT":0},{"OBJECT_NAME":"IRIDIUM 153","OBJECT_ID":"2017-083J","EPOCH":"2026-03-03T17:37:19.387488","MEAN_MOTION":14.34218264,"ECCENTRICITY":0.000218,"INCLINATION":86.401,"RA_OF_ASC_NODE":334.57,"ARG_OF_PERICENTER":78.3196,"MEAN_ANOMALY":281.8245,"EPHEMERIS_TYPE":0,"CLASSIFICATION_TYPE":"U","NORAD_CAT_ID":43078,"ELEMENT_SET_NO":999,"REV_AT_EPOCH":43016,"BSTAR":2.8945e-5,"MEAN_MOTION_DOT":1.01e-6,"MEAN_MOTION_DDOT":0},{"OBJECT_NAME":"IRIDIUM 131","OBJECT_ID":"2017-083K","EPOCH":"2026-03-03T18:27:55.185408","MEAN_MOTION":14.34217178,"ECCENTRICITY":0.0002322,"INCLINATION":86.4021,"RA_OF_ASC_NODE":6.2206,"ARG_OF_PERICENTER":85.2515,"MEAN_ANOMALY":274.8946,"EPHEMERIS_TYPE":0,"CLASSIFICATION_TYPE":"U","NORAD_CAT_ID":43079,"ELEMENT_SET_NO":999,"REV_AT_EPOCH":42899,"BSTAR":0.00012731,"MEAN_MOTION_DOT":3.76e-6,"MEAN_MOTION_DDOT":0},{"OBJECT_NAME":"IRIDIUM 144","OBJECT_ID":"2018-030A","EPOCH":"2026-03-03T17:46:27.395040","MEAN_MOTION":14.3421817,"ECCENTRICITY":0.0002026,"INCLINATION":86.4016,"RA_OF_ASC_NODE":334.499,"ARG_OF_PERICENTER":87.3447,"MEAN_ANOMALY":272.7981,"EPHEMERIS_TYPE":0,"CLASSIFICATION_TYPE":"U","NORAD_CAT_ID":43249,"ELEMENT_SET_NO":999,"REV_AT_EPOCH":41502,"BSTAR":4.755e-5,"MEAN_MOTION_DOT":1.53e-6,"MEAN_MOTION_DDOT":0},{"OBJECT_NAME":"IRIDIUM 149","OBJECT_ID":"2018-030B","EPOCH":"2026-03-03T19:36:03.362112","MEAN_MOTION":14.34218641,"ECCENTRICITY":0.0002148,"INCLINATION":86.4014,"RA_OF_ASC_NODE":334.4356,"ARG_OF_PERICENTER":83.2641,"MEAN_ANOMALY":276.8799,"EPHEMERIS_TYPE":0,"CLASSIFICATION_TYPE":"U","NORAD_CAT_ID":43250,"ELEMENT_SET_NO":999,"REV_AT_EPOCH":41505,"BSTAR":6.0656e-5,"MEAN_MOTION_DOT":1.9e-6,"MEAN_MOTION_DDOT":0},{"OBJECT_NAME":"IRIDIUM 157","OBJECT_ID":"2018-030C","EPOCH":"2026-03-03T18:22:59.369088","MEAN_MOTION":14.34218312,"ECCENTRICITY":0.0002151,"INCLINATION":86.4016,"RA_OF_ASC_NODE":334.5077,"ARG_OF_PERICENTER":85.2093,"MEAN_ANOMALY":274.9349,"EPHEMERIS_TYPE":0,"CLASSIFICATION_TYPE":"U","NORAD_CAT_ID":43251,"ELEMENT_SET_NO":999,"REV_AT_EPOCH":41502,"BSTAR":3.526e-5,"MEAN_MOTION_DOT":1.19e-6,"MEAN_MOTION_DDOT":0},{"OBJECT_NAME":"IRIDIUM 140","OBJECT_ID":"2018-030D","EPOCH":"2026-03-03T18:50:23.392608","MEAN_MOTION":14.34217683,"ECCENTRICITY":0.0001931,"INCLINATION":86.401,"RA_OF_ASC_NODE":334.5125,"ARG_OF_PERICENTER":83.2141,"MEAN_ANOMALY":276.9274,"EPHEMERIS_TYPE":0,"CLASSIFICATION_TYPE":"U","NORAD_CAT_ID":43252,"ELEMENT_SET_NO":999,"REV_AT_EPOCH":41508,"BSTAR":-4.3611e-7,"MEAN_MOTION_DOT":1.9e-7,"MEAN_MOTION_DDOT":0},{"OBJECT_NAME":"IRIDIUM 145","OBJECT_ID":"2018-030E","EPOCH":"2026-03-03T16:51:39.269376","MEAN_MOTION":14.34218752,"ECCENTRICITY":0.0001862,"INCLINATION":86.4015,"RA_OF_ASC_NODE":334.5194,"ARG_OF_PERICENTER":93.1436,"MEAN_ANOMALY":266.9973,"EPHEMERIS_TYPE":0,"CLASSIFICATION_TYPE":"U","NORAD_CAT_ID":43253,"ELEMENT_SET_NO":999,"REV_AT_EPOCH":41500,"BSTAR":7.7752e-5,"MEAN_MOTION_DOT":2.38e-6,"MEAN_MOTION_DDOT":0},{"OBJECT_NAME":"IRIDIUM 146","OBJECT_ID":"2018-030F","EPOCH":"2026-03-03T16:24:15.296832","MEAN_MOTION":14.34219523,"ECCENTRICITY":0.000208,"INCLINATION":86.4015,"RA_OF_ASC_NODE":334.5399,"ARG_OF_PERICENTER":89.0141,"MEAN_ANOMALY":271.1293,"EPHEMERIS_TYPE":0,"CLASSIFICATION_TYPE":"U","NORAD_CAT_ID":43254,"ELEMENT_SET_NO":999,"REV_AT_EPOCH":41501,"BSTAR":0.00012613,"MEAN_MOTION_DOT":3.73e-6,"MEAN_MOTION_DDOT":0},{"OBJECT_NAME":"IRIDIUM 148","OBJECT_ID":"2018-030G","EPOCH":"2026-03-03T17:19:03.299808","MEAN_MOTION":14.3421938,"ECCENTRICITY":0.0002131,"INCLINATION":86.4015,"RA_OF_ASC_NODE":334.5654,"ARG_OF_PERICENTER":86.2519,"MEAN_ANOMALY":273.892,"EPHEMERIS_TYPE":0,"CLASSIFICATION_TYPE":"U","NORAD_CAT_ID":43255,"ELEMENT_SET_NO":999,"REV_AT_EPOCH":41505,"BSTAR":9.4293e-5,"MEAN_MOTION_DOT":2.84e-6,"MEAN_MOTION_DDOT":0},{"OBJECT_NAME":"IRIDIUM 142","OBJECT_ID":"2018-030H","EPOCH":"2026-03-03T18:13:51.352896","MEAN_MOTION":14.34217996,"ECCENTRICITY":0.0001939,"INCLINATION":86.4013,"RA_OF_ASC_NODE":334.4425,"ARG_OF_PERICENTER":92.8049,"MEAN_ANOMALY":267.3368,"EPHEMERIS_TYPE":0,"CLASSIFICATION_TYPE":"U","NORAD_CAT_ID":43256,"ELEMENT_SET_NO":999,"REV_AT_EPOCH":41502,"BSTAR":1.5011e-5,"MEAN_MOTION_DOT":6.2e-7,"MEAN_MOTION_DDOT":0},{"OBJECT_NAME":"IRIDIUM 150","OBJECT_ID":"2018-030J","EPOCH":"2026-03-03T17:28:11.277120","MEAN_MOTION":14.34218108,"ECCENTRICITY":0.0002055,"INCLINATION":86.4018,"RA_OF_ASC_NODE":334.5686,"ARG_OF_PERICENTER":85.6605,"MEAN_ANOMALY":274.4826,"EPHEMERIS_TYPE":0,"CLASSIFICATION_TYPE":"U","NORAD_CAT_ID":43257,"ELEMENT_SET_NO":999,"REV_AT_EPOCH":41504,"BSTAR":9.232e-5,"MEAN_MOTION_DOT":2.78e-6,"MEAN_MOTION_DDOT":0},{"OBJECT_NAME":"IRIDIUM 143","OBJECT_ID":"2018-030K","EPOCH":"2026-03-03T17:00:47.334816","MEAN_MOTION":14.34218566,"ECCENTRICITY":0.0001988,"INCLINATION":86.402,"RA_OF_ASC_NODE":334.6648,"ARG_OF_PERICENTER":88.8332,"MEAN_ANOMALY":271.3091,"EPHEMERIS_TYPE":0,"CLASSIFICATION_TYPE":"U","NORAD_CAT_ID":43258,"ELEMENT_SET_NO":999,"REV_AT_EPOCH":41497,"BSTAR":4.1638e-5,"MEAN_MOTION_DOT":1.36e-6,"MEAN_MOTION_DDOT":0},{"OBJECT_NAME":"IRIDIUM 161","OBJECT_ID":"2018-047C","EPOCH":"2026-03-03T17:12:10.592064","MEAN_MOTION":14.43283124,"ECCENTRICITY":0.0002539,"INCLINATION":86.4511,"RA_OF_ASC_NODE":132.5784,"ARG_OF_PERICENTER":92.6243,"MEAN_ANOMALY":267.5249,"EPHEMERIS_TYPE":0,"CLASSIFICATION_TYPE":"U","NORAD_CAT_ID":43478,"ELEMENT_SET_NO":999,"REV_AT_EPOCH":40992,"BSTAR":0.00011636,"MEAN_MOTION_DOT":4.12e-6,"MEAN_MOTION_DDOT":0}]
