IRIDIUM 151             
1 43074U 17083E   26062.38883271  .00000092  00000+0  25631-4 0  9994
2 43074  86.4014   6.2667 0002152  86.1911 273.9531 14.34218243428978
IRIDIUM 134             
1 43075U 17083F   26062.35711976  .00000044  00000+0  86560-5 0  9990
2 43075  86.4022   6.2866 0002022  85.2146 274.9281 14.34217853428930
IRIDIUM 137             
1 43076U 17083G   26062.78841612  .00000047  00000+0  97451-5 0  9993
2 43076  86.4020   6.1967 0002307  97.0383 263.1075 14.34218031429065
IRIDIUM 141             
1 43077U 17083H   26062.36347479  .00000369  00000+0  12472-3 0  9995
2 43077  86.4015   6.2112 0002237  82.9749 277.1702 14.34220272429000
IRIDIUM 153             
1 43078U 17083J   26062.73425217  .00000101  00000+0  28945-4 0  9991
2 43078  86.4010 334.5700 0002180  78.3196 281.8245 14.34218264430169
IRIDIUM 131             
1 43079U 17083K   26062.76938872  .00000376  00000+0  12731-3 0  9990
2 43079  86.4021   6.2206 0002322  85.2515 274.8946 14.34217178428997
IRIDIUM 144             
1 43249U 18030A   26062.74059485  .00000153  00000+0  47550-4 0  9995
2 43249  86.4016 334.4990 0002026  87.3447 272.7981 14.34218170415023
IRIDIUM 149             
1 43250U 18030B   26062.81670558  .00000190  00000+0  60656-4 0  9998
2 43250  86.4014 334.4356 0002148  83.2641 276.8799 14.34218641415053
IRIDIUM 157             
1 43251U 18030C   26062.76596492  .00000119  00000+0  35260-4 0  9991
2 43251  86.4016 334.5077 0002151  85.2093 274.9349 14.34218312415026
IRIDIUM 140             
1 43252U 18030D   26062.78499297  .00000019  00000+0 -43611-6 0  9990
2 43252  86.4010 334.5125 0001931  83.2141 276.9274 14.34217683415087
IRIDIUM 145             
1 43253U 18030E   26062.70253784  .00000238  00000+0  77752-4 0  9995
2 43253  86.4015 334.5194 0001862  93.1436 266.9973 14.34218752415004
IRIDIUM 146             
1 43254U 18030F   26062.68351038  .00000373  00000+0  12613-3 0  9998
2 43254  86.4015 334.5399 0002080  89.0141 271.1293 14.34219523415013
IRIDIUM 148             
1 43255U 18030G   26062.72156597  .00000284  00000+0  94293-4 0  9993
2 43255  86.4015 334.5654 0002131  86.2519 273.8920 14.34219380415054
IRIDIUM 142             
1 43256U 18030H   26062.75962214  .00000062  00000+0  15011-4 0  9993
2 43256  86.4013 334.4425 0001939  92.8049 267.3368 14.34217996415026
IRIDIUM 150             
1 43257U 18030J   26062.72790830  .00000278  00000+0  92320-4 0  9991
2 43257  86.4018 334.5686 0002055  85.6605 274.4826 14.34218108415046
IRIDIUM 143             
1 43258U 18030K   26062.70888119  .00000136  00000+0  41638-4 0  9997
2 43258  86.4020 334.6648 0001988  88.8332 271.3091 14.34218566414974
IRIDIUM 161             
1 43478U 18047C   26062.71678926  .00000412  00000+0  11636-3 0  9994
2 43478  86.4511 132.5784 0002539  92.6243 267.5249 14.43283124409929
